STARLINK-2355           
1 47895U 21021AM  25253.57816205  .00010976  00000+0  75394-3 0  9993
2 47895  53.0568   0.1711 0001367  72.5134 287.6005 15.06431948249027
STARLINK-2356           
1 47896U 21021AN  25254.03568554 -.00000071  00000+0  14119-4 0  9992
2 47896  53.0575  13.1206 0001145  93.5995 266.5125 15.06403883248857
STARLINK-2358           
1 47898U 21021AQ  25253.57079163  .00008536  00000+0  59103-3 0  9999
2 47898  53.0565   0.2053 0001261  73.9199 286.1929 15.06414585248998
STARLINK-2361           
1 47901U 21021AT  25254.22044790  .00003150  00000+0  23032-3 0  9994
2 47901  53.0585 347.3763 0001576  96.0255 264.0914 15.06388567249277
STARLINK-2363           
1 47903U 21021AV  25254.22686938  .00000027  00000+0  20696-4 0  9996
2 47903  53.0567 347.2518 0001400  91.5229 268.5920 15.06403471249620
STARLINK-2364           
1 47904U 21021AW  25254.29047337 -.00000579  00000+0 -19990-4 0  9997
2 47904  53.0541 346.9776 0001017  76.9902 283.1201 15.06401971249273
STARLINK-2367           
1 47907U 21021AZ  25253.63252316  .00003755  00000+0  27080-3 0  9997
2 47907  53.0563   9.9307 0001277  71.7493 288.3635 15.06408098248872
STARLINK-2368           
1 47908U 21021BA  25254.03798898  .00000751  00000+0  69296-4 0  9992
2 47908  53.0568   8.1077 0001376  85.8314 274.2832 15.06394284248965
STARLINK-2370           
1 47910U 21021BC  25253.57449790  .00007667  00000+0  53276-3 0  9990
2 47910  53.0558   0.3487 0001146  98.1603 261.9516 15.06417723249056
STARLINK-2371           
1 47911U 21021BD  25254.03939995 -.00002430  00000+0 -14433-3 0  9991
2 47911  53.0559  13.3430 0001345  88.8629 271.2514 15.06384763248749
STARLINK-2378           
1 47916U 21021BJ  25254.27942264 -.00000071  00000+0  14146-4 0  9995
2 47916  53.0563 347.0255 0001106  81.1919 278.9196 15.06391053249273
STARLINK-2405           
1 47919U 21021BM  25254.27756978 -.00001067  00000+0 -52720-4 0  9990
2 47919  53.0571   7.0324 0001331  79.4852 280.6287 15.06400075248995
STARLINK-1647           
1 47978U 21024B   25254.17484208  .00001163  00000+0  96974-4 0  9995
2 47978  53.0557  62.4926 0001097  92.0683 268.0432 15.06395603247507
STARLINK-2303           
1 47981U 21024E   25254.16377032  .00000815  00000+0  73622-4 0  9992
2 47981  53.0549  62.5410 0001220  89.5554 270.5575 15.06398304247504
STARLINK-2273           
1 47993U 21024S   25254.06056502  .00000172  00000+0  30448-4 0  9995
2 47993  53.0564  23.0042 0001149  84.0115 276.1005 15.06394057248041
STARLINK-2266           
1 47997U 21024W   25254.11262666  .00001009  00000+0  86615-4 0  9992
2 47997  53.0553  37.7726 0001183  91.4518 268.6606 15.06400549247845
STARLINK-2270           
1 48000U 21024Z   25254.20019360  .00000536  00000+0  54909-4 0  9994
2 48000  53.0554 327.5855 0001391  82.4215 277.6932 15.06392128248789
STARLINK-2153           
1 48009U 21024AJ  25254.20615727  .00001896  00000+0  14615-3 0  9991
2 48009  53.0556  42.3485 0001182  88.9090 271.2035 15.06396816247737
STARLINK-2226           
1 48010U 21024AK  25253.88732076  .00001193  00000+0  98967-4 0  9996
2 48010  53.0561  63.7850 0001283  88.1336 271.9800 15.06401728247405
STARLINK-2282           
1 48018U 21024AT  25254.25004630  .00316448  00000+0  14848-2 0  9990
2 48018  53.0164 333.4189 0010530 315.7417  53.0726 15.81719601  5962
STARLINK-2285           
1 48019U 21024AU  25254.11632044  .00000614  00000+0  60104-4 0  9995
2 48019  53.0559  37.7551 0001317  88.5336 271.5804 15.06393137247787
STARLINK-2298           
1 48022U 21024AX  25253.73485026  .00001008  00000+0  86553-4 0  9996
2 48022  53.0555  59.7488 0001280  92.7763 267.3372 15.06399671247502
STARLINK-2292           
1 48023U 21024AY  25254.18818854  .00001657  00000+0  13011-3 0  9994
2 48023  53.0545  57.4307 0001231  99.9273 260.1855 15.06402994247575
STARLINK-2299           
1 48029U 21024BE  25253.83434396  .00003705  00000+0  26737-3 0  9991
2 48029  53.0548  59.0164 0001101  77.8467 282.2646 15.06411325247525
STARLINK-2404           
1 48093U 21027B   25254.28128595  .00000132  00000+0  27773-4 0  9999
2 48093  53.0542 247.2156 0001310  80.5265 279.5872 15.06397103245515
STARLINK-2412           
1 48094U 21027C   25254.03339316  .00001027  00000+0  87874-4 0  9990
2 48094  53.0544 258.1293 0001389  82.8983 277.2164 15.06392266245344
STARLINK-2414           
1 48095U 21027D   25254.04075774 -.00000128  00000+0  10277-4 0  9992
2 48095  53.0539 258.0946 0001314  86.5575 273.5565 15.06394401245357
STARLINK-2417           
1 48096U 21027E   25254.28034548 -.00000854  00000+0 -38484-4 0  9990
2 48096  53.0545 257.0179 0001371  88.9566 271.1580 15.06388981245370
STARLINK-2418           
1 48097U 21027F   25254.26006923 -.00000154  00000+0  85416-5 0  9995
2 48097  53.0539 237.1081 0001466  83.8180 276.2976 15.06394231245657
STARLINK-2421           
1 48098U 21027G   25254.23702578  .00001091  00000+0  92141-4 0  9994
2 48098  53.0540 247.2144 0001163  93.1421 266.9701 15.06391318245507
STARLINK-2428           
1 48099U 21027H   25254.29139528 -.00000556  00000+0 -18459-4 0  9997
2 48099  53.0532 256.9671 0001230  86.8471 273.2659 15.06394193245372
STARLINK-2430           
1 48100U 21027J   25254.25269146 -.00000892  00000+0 -40998-4 0  9992
2 48100  53.0540 237.1420 0001440  92.3823 267.7331 15.06395217245657
STARLINK-2436           
1 48101U 21027K   25254.25548518  .00000198  00000+0  32187-4 0  9994
2 48101  53.0542 247.3346 0001250  88.2835 271.8297 15.06393786245517
STARLINK-2437           
1 48102U 21027L   25254.25004630  .00335885  00000+0  12624-2 0  9993
2 48102  53.0439 211.5978 0006179  99.9253  32.9575 15.86388588  5729
STARLINK-2439           
1 48104U 21027N   25254.23196106  .00001026  00000+0  87749-4 0  9992
2 48104  53.0527 242.2389 0001321  90.9965 269.1175 15.06397762245587
STARLINK-2440           
1 48105U 21027P   25254.20570849  .00000756  00000+0  69687-4 0  9990
2 48105  53.0538 187.3537 0001449  87.9676 272.1479 15.06387706246343
STARLINK-2442           
1 48106U 21027Q   25254.25637546 -.00000302  00000+0 -13543-5 0  9994
2 48106  53.0534 237.1367 0001363  85.6974 274.4171 15.06398375245657
STARLINK-2443           
1 48107U 21027R   25253.93938922 -.00000078  00000+0  13633-4 0  9999
2 48107  53.0534 238.5496 0001417  99.1249 260.9900 15.06388466245606
STARLINK-2448           
1 48111U 21027V   25253.69520540  .00003620  00000+0  26184-3 0  9999
2 48111  53.0535 249.6161 0001236  85.9859 274.1271 15.06387608245439
STARLINK-2449           
1 48112U 21027W   25253.75464669  .00000109  00000+0  26222-4 0  9999
2 48112  53.0533 264.5462 0001357  89.4054 270.7090 15.06397569245223
STARLINK-2450           
1 48113U 21027X   25254.02233887  .00002208  00000+0  16711-3 0  9990
2 48113  53.0547 258.1804 0001315  90.0100 270.1040 15.06397430245329
STARLINK-2452           
1 48115U 21027Z   25254.27757417 -.00000328  00000+0 -31483-5 0  9997
2 48115  53.0554 247.0378 0001450  88.4664 271.6491 15.06394361245515
STARLINK-2454           
1 48116U 21027AA  25254.28402447  .00001247  00000+0  10262-3 0  9998
2 48116  53.0536 257.0018 0001652  94.2064 265.9113 15.06396266245378
STARLINK-2455           
1 48117U 21027AB  25254.25542732 -.00001073  00000+0 -53173-4 0  9996
2 48117  53.0547 237.1174 0001494  93.9438 266.1722 15.06388466245651
STARLINK-2459           
1 48119U 21027AD  25253.99741999  .00000331  00000+0  41150-4 0  9990
2 48119  53.0547 238.2799 0001232  79.0756 281.0372 15.06391830245607
STARLINK-2460           
1 48120U 21027AE  25254.26927392 -.00002248  00000+0 -13208-3 0  9999
2 48120  53.0539 257.0694 0001565  85.3793 274.7375 15.06404378245382
STARLINK-2462           
1 48121U 21027AF  25254.24071086  .00000584  00000+0  58130-4 0  9991
2 48121  53.0533 247.1999 0001064  86.9629 273.1482 15.06390264245508
STARLINK-2464           
1 48123U 21027AH  25254.24900755 -.00000536  00000+0 -17126-4 0  9996
2 48123  53.0541 237.1580 0001234  85.5732 274.5398 15.06392084245652
STARLINK-2465           
1 48124U 21027AJ  25254.24808619  .00000384  00000+0  44681-4 0  9998
2 48124  53.0534 247.1673 0001424  88.2814 271.8338 15.06394712245509
STARLINK-2466           
1 48125U 21027AK  25253.73114882 -.00007901  00000+0 -51169-3 0  9996
2 48125  53.0546 259.7279 0001283  75.1724 284.9407 15.06428942245293
STARLINK-2467           
1 48126U 21027AL  25254.21584647  .00000522  00000+0  53935-4 0  9995
2 48126  53.0531 237.3114 0001394  93.6927 266.4221 15.06394122245652
STARLINK-2468           
1 48127U 21027AM  25254.27297036 -.00000060  00000+0  14871-4 0  9999
2 48127  53.0540 257.0550 0001222  82.1913 277.9215 15.06387301245374
STARLINK-2469           
1 48128U 21027AN  25254.25362821  .00000714  00000+0  66812-4 0  9990
2 48128  53.0551 187.2243 0001606  90.9218 269.1955 15.06391249246349
STARLINK-2471           
1 48129U 21027AP  25253.73481748 -.00000039  00000+0  16304-4 0  9995
2 48129  53.0555 259.4690 0001443  89.8484 270.2671 15.06393572245295
STARLINK-2472           
1 48130U 21027AQ  25253.44508328  .00001131  00000+0  94784-4 0  9990
2 48130  53.0546 266.3172 0001387  85.2962 274.8185 15.06399662245170
STARLINK-2473           
1 48131U 21027AR  25253.34595123  .00001491  00000+0  11897-3 0  9991
2 48131  53.0541 241.2155 0001339  85.8740 274.2402 15.06400783245517
STARLINK-2474           
1 48132U 21027AS  25253.45838728  .00003007  00000+0  22072-3 0  9997
2 48132  53.0531 260.7108 0001317  88.4028 271.7112 15.06387936245249
STARLINK-2475           
1 48133U 21027AT  25253.72007516  .00000074  00000+0  23872-4 0  9992
2 48133  53.0540 259.5366 0001247  85.8807 274.2325 15.06398942245298
STARLINK-2476           
1 48134U 21027AU  25254.03706486  .00000040  00000+0  21608-4 0  9998
2 48134  53.0541 258.1124 0001225  88.2089 271.9040 15.06386249245332
